H1 CPF  1  HTS 2022  1 15 12  5151 larets           NONE
H2  0304206 5557    27944 2022 01 15  0  0  0 2022 01 20  0  0  0   180 1 1  0 0 0
H5  0.0560 
H9 
10 0 59594  72360.00000  0     433219.327   -5943828.045    3786827.383
10 0 59594  72540.00000  0     164855.913   -6566050.642    2601000.009
10 0 59594  72720.00000  0    -122608.579   -6942200.042    1319887.343
10 0 59594  72900.00000  0    -412081.498   -7058497.636      -9548.867
10 0 59594  73080.00000  0    -686186.718   -6911148.887   -1338645.325
10 0 59594  73260.00000  0    -928166.695   -6506443.149   -2618862.569
10 0 59594  73440.00000  0   -1122751.636   -5860441.369   -3803583.638
10 0 59594  73620.00000  0   -1256954.688   -4998275.369   -4849816.640
10 0 59594  73800.00000  0   -1320752.787   -3953098.441   -5719728.150
10 0 59594  73980.00000  0   -1307623.165   -2764754.754   -6381955.304
10 0 59594  74160.00000  0   -1214914.848   -1478231.452   -6812667.104
10 0 59594  74340.00000  0   -1044044.025    -141958.145   -6996351.714
10 0 59594  74520.00000  0    -800508.603    1193982.944   -6926323.718
10 0 59594  74700.00000  0    -493719.555    2479682.300   -6604950.451
10 0 59594  74880.00000  0    -136655.640    3667218.265   -6043598.562
10 0 59594  75060.00000  0     254654.013    4712419.984   -5262295.512
10 0 59594  75240.00000  0     661805.936    5576521.345   -4289096.544
10 0 59594  75420.00000  0    1064834.647    6227650.003   -3159160.228
10 0 59594  75600.00000  0    1443132.967    6642084.512   -1913540.629
10 0 59594  75780.00000  0    1776440.948    6805215.568    -597724.435
10 0 59594  75960.00000  0    2045855.888    6712149.535     740044.051
10 0 59594  76140.00000  0    2234806.867    6367906.632    2050578.608
10 0 59594  76320.00000  0    2329940.520    5787199.839    3285622.269
10 0 59594  76500.00000  0    2321870.714    4993803.070    4399690.545
10 0 59594  76680.00000  0    2205748.305    4019536.484    5351804.513
10 0 59594  76860.00000  0    1981617.811    2902917.960    6107024.727
10 0 59594  77040.00000  0    1654551.405    1687573.721    6637723.237
10 0 59594  77220.00000  0    1234556.114     420479.112    6924569.395
10 0 59594  77400.00000  0     736258.188    -849893.659    6957195.125
10 0 59594  77580.00000  0     178380.155   -2075446.199    6734541.992
10 0 59594  77760.00000  0    -416974.930   -3210288.765    6264880.641
10 0 59594  77940.00000  0   -1025203.871   -4212470.283    5565497.495
10 0 59594  78120.00000  0   -1620211.838   -5045539.870    4662069.522
10 0 59594  78300.00000  0   -2175523.668   -5679903.410    3587748.422
10 0 59594  78480.00000  0   -2665453.221   -6093918.334    2381952.480
10 0 59594  78660.00000  0   -3066271.393   -6274662.223    1088908.258
10 0 59594  78840.00000  0   -3357315.426   -6218345.024    -243997.971
10 0 59594  79020.00000  0   -3521984.411   -5930344.936   -1567994.776
10 0 59594  79200.00000  0   -3548570.538   -5424864.118   -2834749.977
10 0 59594  79380.00000  0   -3430883.782   -4724222.914   -3998162.260
10 0 59594  79560.00000  0   -3168638.587   -3857836.583   -5016038.589
10 0 59594  79740.00000  0   -2767591.309   -2860939.845   -5851590.610
10 0 59594  79920.00000  0   -2239431.513   -1773126.444   -6474705.781
10 0 59594  80100.00000  0   -1601434.365    -636770.242   -6862962.845
10 0 59594  80280.00000  0    -875891.494     504608.252   -7002368.713
10 0 59594  80460.00000  0     -89346.227    1607968.528   -6887814.581
10 0 59594  80640.00000  0     728347.607    2632326.781   -6523255.737
10 0 59594  80820.00000  0    1545122.305    3540246.054   -5921612.043
10 0 59594  81000.00000  0    2327923.118    4299198.731   -5104375.295
10 0 59594  81180.00000  0    3044024.514    4882754.476   -4100924.453
10 0 59594  81360.00000  0    3662392.854    5271554.190   -2947549.999
10 0 59594  81540.00000  0    4155041.250    5454020.802   -1686198.933
10 0 59594  81720.00000  0    4498311.589    5426763.270    -362970.029
10 0 59594  81900.00000  0    4674013.039    5194644.081     973590.258
10 0 59594  82080.00000  0    4670349.662    4770492.109    2274318.760
10 0 59594  82260.00000  0    4482586.078    4174477.728    3491308.767
10 0 59594  82440.00000  0    4113408.881    3433171.652    4579745.366
10 0 59594  82620.00000  0    3572961.826    2578339.806    5499603.338
10 0 59594  82800.00000  0    2878557.404    1645544.655    6217141.906
10 0 59594  82980.00000  0    2054081.606     672625.130    6706129.804
10 0 59594  83160.00000  0    1129132.179    -301867.474    6948771.288
10 0 59594  83340.00000  0     137923.181   -1240210.340    6936320.588
10 0 59594  83520.00000  0    -882004.256   -2106979.778    6669370.441
10 0 59594  83700.00000  0   -1891217.733   -2870394.821    6157807.070
10 0 59594  83880.00000  0   -2849919.977   -3503486.086    5420444.293
10 0 59594  84060.00000  0   -3719527.670   -3985061.878    4484354.884
10 0 59594  84240.00000  0   -4464247.869   -4300433.855    3383891.210
10 0 59594  84420.00000  0   -5052570.700   -4441869.024    2159428.062
10 0 59594  84600.00000  0   -5458619.140   -4408753.740     855872.476
10 0 59594  84780.00000  0   -5663290.059   -4207456.034    -479012.364
10 0 59594  84960.00000  0   -5655125.697   -3850892.213   -1796397.396
10 0 59594  85140.00000  0   -5430867.826   -3357819.513   -3048215.687
10 0 59594  85320.00000  0   -4995666.322   -2751895.165   -4188937.690
10 0 59594  85500.00000  0   -4362945.837   -2060560.341   -5177218.751
10 0 59594  85680.00000  0   -3553945.275   -1313807.827   -5977360.808
10 0 59594  85860.00000  0   -2596959.342    -542892.811   -6560540.962
10 0 59594  86040.00000  0   -1526322.001     220955.004   -6905776.666
10 0 59594  86220.00000  0    -381175.219     947764.610   -7000612.059
10 0 59595      0.00000  0     795929.634    1609964.368   -6841526.137
10 0 59595    180.00000  0    1960564.421    2183400.188   -6434066.534
10 0 59595    360.00000  0    3068060.235    2648206.359   -5792698.766
10 0 59595    540.00000  0    4075194.485    2989499.791   -4940359.542
10 0 59595    720.00000  0    4941877.535    3197875.510   -3907722.084
10 0 59595    900.00000  0    5632783.472    3269683.111   -2732169.725
10 0 59595   1080.00000  0    6118847.314    3207065.858   -1456494.785
10 0 59595   1260.00000  0    6378557.046    3017753.135    -127355.148
10 0 59595   1440.00000  0    6398962.072    2714604.208    1206457.650
10 0 59595   1620.00000  0    6176334.860    2314921.855    2495863.119
10 0 59595   1800.00000  0    5716445.335    1839574.682    3693366.454
10 0 59595   1980.00000  0    5034423.884    1311968.121    4754875.891
10 0 59595   2160.00000  0    4154221.250     756922.889    5641369.263
10 0 59595   2340.00000  0    3107704.109     199522.140    6320343.895
10 0 59595   2520.00000  0    1933429.228    -336013.537    6766993.207
10 0 59595   2700.00000  0     675168.875    -827369.008    6965079.901
10 0 59595   2880.00000  0    -619760.681   -1255059.776    6907493.894
10 0 59595   3060.00000  0   -1902302.358   -1603202.902    6596477.117
10 0 59595   3240.00000  0   -3123524.678   -1860105.438    6043520.733
10 0 59595   3420.00000  0   -4236495.351   -2018652.860    5268952.344
10 0 59595   3600.00000  0   -5198111.567   -2076493.451    4301209.208
10 0 59595   3780.00000  0   -5970804.076   -2036006.019    3175804.535
10 0 59595   3960.00000  0   -6524041.922   -1904050.892    1934027.597
10 0 59595   4140.00000  0   -6835579.729   -1691521.500     621418.539
10 0 59595   4320.00000  0   -6892377.471   -1412713.542    -713936.758
10 0 59595   4500.00000  0   -6691139.656   -1084542.494   -2023210.800
10 0 59595   4680.00000  0   -6238449.863    -725654.896   -3258655.697
10 0 59595   4860.00000  0   -5550502.744    -355482.636   -4375361.095
10 0 59595   5040.00000  0   -4652453.577       6715.513   -5332876.839
10 0 59595   5220.00000  0   -3577427.973     342775.007   -6096636.934
10 0 59595   5400.00000  0   -2365246.872     636464.599   -6639140.973
10 0 59595   5580.00000  0   -1060933.077     874209.324   -6940867.965
10 0 59595   5760.00000  0     286944.095    1045673.502   -6990915.637
10 0 59595   5940.00000  0    1628030.234    1144186.171   -6787360.560
10 0 59595   6120.00000  0    2912014.954    1166997.090   -6337345.298
10 0 59595   6300.00000  0    4090482.397    1115355.853   -5656871.903
10 0 59595   6480.00000  0    5118721.420     994408.276   -4770303.784
10 0 59595   6660.00000  0    5957445.580     812912.856   -3709579.418
10 0 59595   6840.00000  0    6574355.469     582783.786   -2513135.838
10 0 59595   7020.00000  0    6945471.138     318475.188   -1224564.426
10 0 59595   7200.00000  0    7056162.111      36231.238     108970.764
10 0 59595   7380.00000  0    6901804.176    -246761.844    1438490.136
10 0 59595   7560.00000  0    6488023.186    -513279.913    2715055.724
10 0 59595   7740.00000  0    5830498.218    -746972.214    3891645.381
10 0 59595   7920.00000  0    4954331.592    -933228.071    4924945.942
10 0 59595   8100.00000  0    3893028.465   -1059953.537    5776986.762
10 0 59595   8280.00000  0    2687137.913   -1118214.967    6416543.871
10 0 59595   8460.00000  0    1382633.651   -1102721.654    6820266.171
10 0 59595   8640.00000  0      29107.466   -1012129.166    6973496.905
10 0 59595   8820.00000  0   -1322152.323    -849149.399    6870768.506
10 0 59595   9000.00000  0   -2620118.874    -620465.563    6515968.782
10 0 59595   9180.00000  0   -3815958.834    -336454.895    5922186.883
10 0 59595   9360.00000  0   -4864883.764     -10730.161    5111244.111
10 0 59595   9540.00000  0   -5727858.093     340482.332    4112909.656
10 0 59595   9720.00000  0   -6373091.495     699104.109    2963818.754
10 0 59595   9900.00000  0   -6777252.612    1046073.843    1706129.364
10 0 59595  10080.00000  0   -6926351.532    1362283.416     385959.059
10 0 59595  10260.00000  0   -6816243.119    1629533.616    -948341.567
99
